STARLINK-32543          
1 63364U 25063B   25294.51817084  .00050905  00000+0  12735-2 0  9992
2 63364  53.1598 337.3544 0001546  66.7234 293.3934 15.39634718 33464
STARLINK-33741          
1 63365U 25063C   25294.55078686  .00050386  00000+0  17012-2 0  9990
2 63365  53.1581 338.9713 0001248  76.8895 283.2245 15.30211483 33459
STARLINK-33742          
1 63366U 25063D   25294.51806979  .00026162  00000+0  89177-3 0  9998
2 63366  53.1603 338.7664 0001307  69.6000 290.5141 15.30220485 33405
STARLINK-33734          
1 63367U 25063E   25294.53591184  .00051226  00000+0  17335-2 0  9995
2 63367  53.1595 348.7982 0001362  82.7524 277.3631 15.30131039 33265
STARLINK-33578          
1 63368U 25063F   25294.55598360  .00075663  00000+0  18812-2 0  9993
2 63368  53.1592 337.5814 0001669 105.8598 254.2591 15.39646404 33424
STARLINK-33626          
1 63369U 25063G   25294.36545390  .00084243  00000+0  20905-2 0  9998
2 63369  53.1590 337.8100 0001553  87.2685 272.8498 15.39654120 33400
STARLINK-33657          
1 63370U 25063H   25294.53812072  .00048525  00000+0  16398-2 0  9997
2 63370  53.1597 338.8879 0001367 105.6025 254.5126 15.30199593 33403
STARLINK-33648          
1 63371U 25063J   25294.41699135  .00033786  00000+0  11480-2 0  9998
2 63371  53.1587 339.5559 0001307  96.3235 263.7915 15.30190342 33433
STARLINK-33614          
1 63372U 25063K   25294.39331856  .00076553  00000+0  19024-2 0  9990
2 63372  53.1601 337.9852 0001529  94.4317 265.6862 15.39655678 33456
STARLINK-33617          
1 63373U 25063L   25294.41643907  .00066680  00000+0  16635-2 0  9992
2 63373  53.1589 337.4161 0000934  81.0625 279.0485 15.39600844 33414
STARLINK-33618          
1 63374U 25063M   25294.55090690  .00054505  00000+0  13621-2 0  9998
2 63374  53.1595 336.8336 0001739  53.8080 306.3086 15.39636754 33482
STARLINK-33621          
1 63375U 25063N   25294.50920650  .00050704  00000+0  12717-2 0  9994
2 63375  53.1594 337.2847 0001324  58.8218 301.2916 15.39559782 33427
STARLINK-33539          
1 63376U 25063P   25294.47799890  .00042146  00000+0  14251-2 0  9997
2 63376  53.1607 349.1474 0001472 103.6515 256.4650 15.30243270 33254
STARLINK-33634          
1 63377U 25063Q   25294.38427501  .00028763  00000+0  97883-3 0  9997
2 63377  53.1616 339.3480 0001376  70.8052 289.3098 15.30222036 33435
STARLINK-33640          
1 63378U 25063R   25294.52018067  .00024233  00000+0  82725-3 0  9994
2 63378  53.1608 338.7707 0001066  85.1221 274.9901 15.30215618 33458
STARLINK-33636          
1 63379U 25063S   25294.51173860  .00021974  00000+0  75149-3 0  9998
2 63379  53.1601 338.7225 0001145  94.6223 265.4908 15.30214629 33400
