[{"OBJECT_NAME":"STARLINK-32543","OBJECT_ID":"2025-063B","EPOCH":"2025-10-21T12:26:09.960576","MEAN_MOTION":15.39634718,"ECCENTRICITY":0.0001546,"INCLINATION":53.1598,"RA_OF_ASC_NODE":337.3544,"ARG_OF_PERICENTER":66.7234,"MEAN_ANOMALY":293.3934,"EPHEMERIS_TYPE":0,"CLASSIFICATION_TYPE":"U","NORAD_CAT_ID":63364,"ELEMENT_SET_NO":999,"REV_AT_EPOCH":3346,"BSTAR":0.0012735,"MEAN_MOTION_DOT":0.00050905,"MEAN_MOTION_DDOT":0},{"OBJECT_NAME":"STARLINK-33741","OBJECT_ID":"2025-063C","EPOCH":"2025-10-21T13:13:07.984704","MEAN_MOTION":15.30211483,"ECCENTRICITY":0.0001248,"INCLINATION":53.1581,"RA_OF_ASC_NODE":338.9713,"ARG_OF_PERICENTER":76.8895,"MEAN_ANOMALY":283.2245,"EPHEMERIS_TYPE":0,"CLASSIFICATION_TYPE":"U","NORAD_CAT_ID":63365,"ELEMENT_SET_NO":999,"REV_AT_EPOCH":3345,"BSTAR":0.0017012,"MEAN_MOTION_DOT":0.00050386,"MEAN_MOTION_DDOT":0},{"OBJECT_NAME":"STARLINK-33742","OBJECT_ID":"2025-063D","EPOCH":"2025-10-21T12:26:01.229856","MEAN_MOTION":15.30220485,"ECCENTRICITY":0.0001307,"INCLINATION":53.1603,"RA_OF_ASC_NODE":338.7664,"ARG_OF_PERICENTER":69.6,"MEAN_ANOMALY":290.5141,"EPHEMERIS_TYPE":0,"CLASSIFICATION_TYPE":"U","NORAD_CAT_ID":63366,"ELEMENT_SET_NO":999,"REV_AT_EPOCH":3340,"BSTAR":0.00089177,"MEAN_MOTION_DOT":0.00026162,"MEAN_MOTION_DDOT":0},{"OBJECT_NAME":"STARLINK-33734","OBJECT_ID":"2025-063E","EPOCH":"2025-10-21T12:51:42.782976","MEAN_MOTION":15.30131039,"ECCENTRICITY":0.0001362,"INCLINATION":53.1595,"RA_OF_ASC_NODE":348.7982,"ARG_OF_PERICENTER":82.7524,"MEAN_ANOMALY":277.3631,"EPHEMERIS_TYPE":0,"CLASSIFICATION_TYPE":"U","NORAD_CAT_ID":63367,"ELEMENT_SET_NO":999,"REV_AT_EPOCH":3326,"BSTAR":0.0017335,"MEAN_MOTION_DOT":0.00051226,"MEAN_MOTION_DDOT":0},{"OBJECT_NAME":"STARLINK-33578","OBJECT_ID":"2025-063F","EPOCH":"2025-10-21T13:20:36.983040","MEAN_MOTION":15.39646404,"ECCENTRICITY":0.0001669,"INCLINATION":53.1592,"RA_OF_ASC_NODE":337.5814,"ARG_OF_PERICENTER":105.8598,"MEAN_ANOMALY":254.2591,"EPHEMERIS_TYPE":0,"CLASSIFICATION_TYPE":"U","NORAD_CAT_ID":63368,"ELEMENT_SET_NO":999,"REV_AT_EPOCH":3342,"BSTAR":0.0018812,"MEAN_MOTION_DOT":0.00075663,"MEAN_MOTION_DDOT":0},{"OBJECT_NAME":"STARLINK-33626","OBJECT_ID":"2025-063G","EPOCH":"2025-10-21T08:46:15.216960","MEAN_MOTION":15.3965412,"ECCENTRICITY":0.00015532,"INCLINATION":53.159,"RA_OF_ASC_NODE":337.81,"ARG_OF_PERICENTER":87.2685,"MEAN_ANOMALY":272.8498,"EPHEMERIS_TYPE":0,"CLASSIFICATION_TYPE":"U","NORAD_CAT_ID":63369,"ELEMENT_SET_NO":999,"REV_AT_EPOCH":3340,"BSTAR":0.0020904986,"MEAN_MOTION_DOT":0.00084243,"MEAN_MOTION_DDOT":0},{"OBJECT_NAME":"STARLINK-33657","OBJECT_ID":"2025-063H","EPOCH":"2025-10-21T12:54:53.630208","MEAN_MOTION":15.30199593,"ECCENTRICITY":0.0001367,"INCLINATION":53.1597,"RA_OF_ASC_NODE":338.8879,"ARG_OF_PERICENTER":105.6025,"MEAN_ANOMALY":254.5126,"EPHEMERIS_TYPE":0,"CLASSIFICATION_TYPE":"U","NORAD_CAT_ID":63370,"ELEMENT_SET_NO":999,"REV_AT_EPOCH":3340,"BSTAR":0.0016398,"MEAN_MOTION_DOT":0.00048525,"MEAN_MOTION_DDOT":0},{"OBJECT_NAME":"STARLINK-33648","OBJECT_ID":"2025-063J","EPOCH":"2025-10-21T10:00:28.052640","MEAN_MOTION":15.30190342,"ECCENTRICITY":0.00013079,"INCLINATION":53.1587,"RA_OF_ASC_NODE":339.5559,"ARG_OF_PERICENTER":96.3235,"MEAN_ANOMALY":263.7915,"EPHEMERIS_TYPE":0,"CLASSIFICATION_TYPE":"U","NORAD_CAT_ID":63371,"ELEMENT_SET_NO":999,"REV_AT_EPOCH":3343,"BSTAR":0.0011480191,"MEAN_MOTION_DOT":0.00033786,"MEAN_MOTION_DDOT":0},{"OBJECT_NAME":"STARLINK-33614","OBJECT_ID":"2025-063K","EPOCH":"2025-10-21T09:26:22.723584","MEAN_MOTION":15.39655678,"ECCENTRICITY":0.00015299,"INCLINATION":53.1601,"RA_OF_ASC_NODE":337.9852,"ARG_OF_PERICENTER":94.4317,"MEAN_ANOMALY":265.6862,"EPHEMERIS_TYPE":0,"CLASSIFICATION_TYPE":"U","NORAD_CAT_ID":63372,"ELEMENT_SET_NO":999,"REV_AT_EPOCH":3345,"BSTAR":0.0019023987,"MEAN_MOTION_DOT":0.00076553,"MEAN_MOTION_DDOT":0},{"OBJECT_NAME":"STARLINK-33617","OBJECT_ID":"2025-063L","EPOCH":"2025-10-21T09:59:40.335648","MEAN_MOTION":15.39600844,"ECCENTRICITY":9.344e-5,"INCLINATION":53.1589,"RA_OF_ASC_NODE":337.4161,"ARG_OF_PERICENTER":81.0625,"MEAN_ANOMALY":279.0485,"EPHEMERIS_TYPE":0,"CLASSIFICATION_TYPE":"U","NORAD_CAT_ID":63373,"ELEMENT_SET_NO":999,"REV_AT_EPOCH":3341,"BSTAR":0.0016634906,"MEAN_MOTION_DOT":0.0006668,"MEAN_MOTION_DDOT":0},{"OBJECT_NAME":"STARLINK-33618","OBJECT_ID":"2025-063M","EPOCH":"2025-10-21T13:13:18.356160","MEAN_MOTION":15.39636754,"ECCENTRICITY":0.0001739,"INCLINATION":53.1595,"RA_OF_ASC_NODE":336.8336,"ARG_OF_PERICENTER":53.808,"MEAN_ANOMALY":306.3086,"EPHEMERIS_TYPE":0,"CLASSIFICATION_TYPE":"U","NORAD_CAT_ID":63374,"ELEMENT_SET_NO":999,"REV_AT_EPOCH":3348,"BSTAR":0.0013621,"MEAN_MOTION_DOT":0.00054505,"MEAN_MOTION_DDOT":0},{"OBJECT_NAME":"STARLINK-33621","OBJECT_ID":"2025-063N","EPOCH":"2025-10-21T12:13:15.441600","MEAN_MOTION":15.39559782,"ECCENTRICITY":0.0001324,"INCLINATION":53.1594,"RA_OF_ASC_NODE":337.2847,"ARG_OF_PERICENTER":58.8218,"MEAN_ANOMALY":301.2916,"EPHEMERIS_TYPE":0,"CLASSIFICATION_TYPE":"U","NORAD_CAT_ID":63375,"ELEMENT_SET_NO":999,"REV_AT_EPOCH":3342,"BSTAR":0.0012717,"MEAN_MOTION_DOT":0.00050704,"MEAN_MOTION_DDOT":0},{"OBJECT_NAME":"STARLINK-33539","OBJECT_ID":"2025-063P","EPOCH":"2025-10-21T11:28:19.104960","MEAN_MOTION":15.3024327,"ECCENTRICITY":0.0001472,"INCLINATION":53.1607,"RA_OF_ASC_NODE":349.1474,"ARG_OF_PERICENTER":103.6515,"MEAN_ANOMALY":256.465,"EPHEMERIS_TYPE":0,"CLASSIFICATION_TYPE":"U","NORAD_CAT_ID":63376,"ELEMENT_SET_NO":999,"REV_AT_EPOCH":3325,"BSTAR":0.0014251,"MEAN_MOTION_DOT":0.00042146,"MEAN_MOTION_DDOT":0},{"OBJECT_NAME":"STARLINK-33634","OBJECT_ID":"2025-063Q","EPOCH":"2025-10-21T09:13:21.360864","MEAN_MOTION":15.30222036,"ECCENTRICITY":0.00013766,"INCLINATION":53.1616,"RA_OF_ASC_NODE":339.348,"ARG_OF_PERICENTER":70.8052,"MEAN_ANOMALY":289.3098,"EPHEMERIS_TYPE":0,"CLASSIFICATION_TYPE":"U","NORAD_CAT_ID":63377,"ELEMENT_SET_NO":999,"REV_AT_EPOCH":3343,"BSTAR":0.00097882656,"MEAN_MOTION_DOT":0.00028763,"MEAN_MOTION_DDOT":0},{"OBJECT_NAME":"STARLINK-33640","OBJECT_ID":"2025-063R","EPOCH":"2025-10-21T12:29:03.609888","MEAN_MOTION":15.30215618,"ECCENTRICITY":0.0001066,"INCLINATION":53.1608,"RA_OF_ASC_NODE":338.7707,"ARG_OF_PERICENTER":85.1221,"MEAN_ANOMALY":274.9901,"EPHEMERIS_TYPE":0,"CLASSIFICATION_TYPE":"U","NORAD_CAT_ID":63378,"ELEMENT_SET_NO":999,"REV_AT_EPOCH":3345,"BSTAR":0.00082725,"MEAN_MOTION_DOT":0.00024233,"MEAN_MOTION_DDOT":0},{"OBJECT_NAME":"STARLINK-33636","OBJECT_ID":"2025-063S","EPOCH":"2025-10-21T12:16:54.215040","MEAN_MOTION":15.30214629,"ECCENTRICITY":0.0001145,"INCLINATION":53.1601,"RA_OF_ASC_NODE":338.7225,"ARG_OF_PERICENTER":94.6223,"MEAN_ANOMALY":265.4908,"EPHEMERIS_TYPE":0,"CLASSIFICATION_TYPE":"U","NORAD_CAT_ID":63379,"ELEMENT_SET_NO":999,"REV_AT_EPOCH":3340,"BSTAR":0.00075149,"MEAN_MOTION_DOT":0.00021974,"MEAN_MOTION_DDOT":0}]
